ONEWEB-0338             
1 49204U 21083U   23270.64274437  .00000122  00000+0  26893-3 0  9999
2 49204  87.9159 112.2722 0002206  76.5460 283.5919 13.20772922106969
ONEWEB-0339             
1 49205U 21083V   23270.46619148  .00000094  00000+0  22307-3 0  9996
2 49205  87.9061 157.9467 0001749  69.2969 290.8347 13.13467840100443
ONEWEB-0340             
1 49206U 21083W   23271.13790006 -.00000402  00000+0 -10535-2 0  9999
2 49206  87.9226 172.9758 0001840  72.8902 287.2432 13.18683834100382
ONEWEB-0341             
1 49207U 21083X   23270.76695929 -.00000837  00000+0 -21555-2 0  9992
2 49207  87.9306 173.0078 0001942  50.9346 309.1958 13.18692036100359
ONEWEB-0342             
1 49208U 21083Y   23270.49754514  .00000079  00000+0  16239-3 0  9999
2 49208  87.9153 112.3332 0001995  80.5102 279.6256 13.20771919105613
ONEWEB-0343             
1 49209U 21083Z   23270.76274676  .00000096  00000+0  21142-3 0  9994
2 49209  87.9290 173.0397 0002108  43.4769 316.6529 13.18686987100409
ONEWEB-0344             
1 49210U 21083AA  23271.19305471  .00000075  00000+0  16946-3 0  9995
2 49210  87.9059 157.8090 0001887  72.5728 287.5607 13.13468331101843
ONEWEB-0345             
1 49211U 21083AB  23271.13484988  .00000357  00000+0  94231-3 0  9997
2 49211  87.9061 157.8067 0001146  62.7984 297.3262 13.13472975101849
